OBJECT B                
1 51825U 22019B   24305.86954983  .00040078  00000+0  14537-2 0  9991
2 51825  97.4153  15.9447 0013987 116.6797 243.5876 15.28133690148058
